{
  "norad_id": 48132,
  "name": "STARLINK-2474",
  "history": [
    {
      "epoch": "2026-03-28T22:25:50.593440Z",
      "apogee_km": 476.2076970661228,
      "perigee_km": 474.18980088819444,
      "latitude_deg": -3.3491560491430376e-05,
      "longitude_deg": -84.4043638454801,
      "height_km": 476.3861024102561,
      "semi_major_axis_km": 6853.335748977159,
      "eccentricity": 0.00014722,
      "inclination_deg": 53.1604,
      "raan_deg": 78.4044,
      "arg_perigee_deg": 106.6701,
      "mean_anomaly_deg": 253.4461,
      "mean_motion_rev_day": 15.30205466
    },
    {
      "epoch": "2026-03-29T04:42:03.430656Z",
      "apogee_km": 476.20027204842154,
      "perigee_km": 474.17579983280393,
      "latitude_deg": 4.698998724291592e-05,
      "longitude_deg": -179.92850151007946,
      "height_km": 476.2625320117237,
      "semi_major_axis_km": 6853.325035940612,
      "eccentricity": 0.0001477,
      "inclination_deg": 53.1595,
      "raan_deg": 77.1912,
      "arg_perigee_deg": 100.0554,
      "mean_anomaly_deg": 260.0614,
      "mean_motion_rev_day": 15.30209054
    },
    {
      "epoch": "2026-03-30T02:38:48.681888Z",
      "apogee_km": 476.09161309524825,
      "perigee_km": 474.4070507348624,
      "latitude_deg": -6.368803218100244e-05,
      "longitude_deg": -154.26661645182887,
      "height_km": 476.2349969683826,
      "semi_major_axis_km": 6853.386331915055,
      "eccentricity": 0.0001229,
      "inclination_deg": 53.1588,
      "raan_deg": 72.943,
      "arg_perigee_deg": 95.9732,
      "mean_anomaly_deg": 264.1408,
      "mean_motion_rev_day": 15.30188525
    },
    {
      "epoch": "2026-03-30T05:46:55.002432Z",
      "apogee_km": 475.996545650848,
      "perigee_km": 474.4919543312262,
      "latitude_deg": 1.926436329161806e-05,
      "longitude_deg": 157.97185637308476,
      "height_km": 476.22427054595886,
      "semi_major_axis_km": 6853.381249991037,
      "eccentricity": 0.00010977,
      "inclination_deg": 53.1587,
      "raan_deg": 72.3365,
      "arg_perigee_deg": 96.2462,
      "mean_anomaly_deg": 263.8664,
      "mean_motion_rev_day": 15.30190227
    },
    {
      "epoch": "2026-03-30T08:55:01.475904Z",
      "apogee_km": 476.11921697973594,
      "perigee_km": 474.3599552100859,
      "latitude_deg": -3.358876894350054e-05,
      "longitude_deg": 110.20958906817017,
      "height_km": 476.3259563652082,
      "semi_major_axis_km": 6853.376586094911,
      "eccentricity": 0.00012835,
      "inclination_deg": 53.1589,
      "raan_deg": 71.73,
      "arg_perigee_deg": 102.367,
      "mean_anomaly_deg": 257.7474,
      "mean_motion_rev_day": 15.30191789
    },
    {
      "epoch": "2026-03-30T23:01:30.019872Z",
      "apogee_km": 475.9496991408505,
      "perigee_km": 474.41208873816686,
      "latitude_deg": 4.510175517734146e-05,
      "longitude_deg": -104.71997687330405,
      "height_km": 476.20899475684416,
      "semi_major_axis_km": 6853.317893939508,
      "eccentricity": 0.00011218,
      "inclination_deg": 53.1586,
      "raan_deg": 68.9987,
      "arg_perigee_deg": 99.7319,
      "mean_anomaly_deg": 260.3809,
      "mean_motion_rev_day": 15.30211446
    },
    {
      "epoch": "2026-03-31T05:17:42.274752Z",
      "apogee_km": 476.07737486998303,
      "perigee_km": 474.3654059440587,
      "latitude_deg": -4.3275467259996417e-05,
      "longitude_deg": 159.7577929771486,
      "height_km": 476.23509834936567,
      "semi_major_axis_km": 6853.35839040702,
      "eccentricity": 0.0001249,
      "inclination_deg": 53.1583,
      "raan_deg": 67.7851,
      "arg_perigee_deg": 97.7728,
      "mean_anomaly_deg": 262.3414,
      "mean_motion_rev_day": 15.30197883
    },
    {
      "epoch": "2026-04-01T04:48:31.900608Z",
      "apogee_km": 476.1886423062033,
      "perigee_km": 474.3564517978939,
      "latitude_deg": -5.206742981220988e-05,
      "longitude_deg": 161.5341365344972,
      "height_km": 476.3857257488404,
      "semi_major_axis_km": 6853.409547052048,
      "eccentricity": 0.00013367,
      "inclination_deg": 53.1593,
      "raan_deg": 63.2339,
      "arg_perigee_deg": 103.5878,
      "mean_anomaly_deg": 256.5271,
      "mean_motion_rev_day": 15.3018075
    },
    {
      "epoch": "2026-04-02T04:19:19.771680Z",
      "apogee_km": 476.1142868623001,
      "perigee_km": 474.2564882294837,
      "latitude_deg": -7.146386594280552e-05,
      "longitude_deg": 163.31710358038828,
      "height_km": 476.1980327770413,
      "semi_major_axis_km": 6853.322387545892,
      "eccentricity": 0.00013554,
      "inclination_deg": 53.1602,
      "raan_deg": 58.682,
      "arg_perigee_deg": 97.0892,
      "mean_anomaly_deg": 263.0262,
      "mean_motion_rev_day": 15.30209941
    },
    {
      "epoch": "2026-04-03T14:48:29.307168Z",
      "apogee_km": 475.9859354281816,
      "perigee_km": 474.3205858948395,
      "latitude_deg": 6.999751313995535e-06,
      "longitude_deg": -2.0633575938480218,
      "height_km": 476.0777565030584,
      "semi_major_axis_km": 6853.29026066151,
      "eccentricity": 0.0001215,
      "inclination_deg": 53.1613,
      "raan_deg": 52.0075,
      "arg_perigee_deg": 91.803,
      "mean_anomaly_deg": 268.311,
      "mean_motion_rev_day": 15.30220701
    },
    {
      "epoch": "2026-04-04T06:29:00.877056Z",
      "apogee_km": 476.07947995604354,
      "perigee_km": 474.3206395330317,
      "latitude_deg": -1.7817523660392473e-07,
      "longitude_deg": 119.1307282884873,
      "height_km": 476.5503277510076,
      "semi_major_axis_km": 6853.337059744537,
      "eccentricity": 0.00012832,
      "inclination_deg": 53.161,
      "raan_deg": 48.9769,
      "arg_perigee_deg": 120.9185,
      "mean_anomaly_deg": 239.1942,
      "mean_motion_rev_day": 15.30205027
    },
    {
      "epoch": "2026-04-05T13:50:04.803936Z",
      "apogee_km": 476.1817474380505,
      "perigee_km": 474.25184300931414,
      "latitude_deg": 1.769172379718822e-05,
      "longitude_deg": 1.508234327617739,
      "height_km": 476.6157218771901,
      "semi_major_axis_km": 6853.353795223682,
      "eccentricity": 0.0001408,
      "inclination_deg": 53.1605,
      "raan_deg": 42.9083,
      "arg_perigee_deg": 121.2589,
      "mean_anomaly_deg": 238.855,
      "mean_motion_rev_day": 15.30199422
    }
  ]
}